[{"OBJECT_NAME":"STARLINK-36240","OBJECT_ID":"2025-298B","EPOCH":"2026-03-09T22:38:13.077024","MEAN_MOTION":14.9914115,"ECCENTRICITY":0.00027696,"INCLINATION":70.0016,"RA_OF_ASC_NODE":13.8861,"ARG_OF_PERICENTER":258.7048,"MEAN_ANOMALY":101.38,"EPHEMERIS_TYPE":0,"CLASSIFICATION_TYPE":"U","NORAD_CAT_ID":67076,"ELEMENT_SET_NO":999,"REV_AT_EPOCH":1325,"BSTAR":0.00087635231,"MEAN_MOTION_DOT":0.00010601,"MEAN_MOTION_DDOT":0},{"OBJECT_NAME":"CZ-2C DEB","OBJECT_ID":"2014-059C","EPOCH":"2026-03-09T21:10:12.095616","MEAN_MOTION":14.89082619,"ECCENTRICITY":0.00574388,"INCLINATION":98.186,"RA_OF_ASC_NODE":178.5961,"ARG_OF_PERICENTER":246.4472,"MEAN_ANOMALY":113.0704,"EPHEMERIS_TYPE":0,"CLASSIFICATION_TYPE":"U","NORAD_CAT_ID":40263,"ELEMENT_SET_NO":999,"REV_AT_EPOCH":60828,"BSTAR":0.0019374157,"MEAN_MOTION_DOT":0.00018813,"MEAN_MOTION_DDOT":0}]
